{
  "type": "FeatureCollection",
  "features": [
    {
      "type": "Feature",
      "properties": {
        "norad_id": 66461,
        "name": "STARLINK-35132",
        "group": "last-30-days",
        "lat": -20.65312252839377,
        "lon": -97.384508379888,
        "alt_km": 444.73029933026373,
        "timestamp": "2025-12-14T22:38:39.515734+00:00",
        "meta_object_name": "STARLINK-35132",
        "meta_object_id": "2025-262F",
        "meta_epoch": "2025-12-14T06:10:25.228416",
        "meta_mean_motion": 15.40680665,
        "meta_eccentricity": 0.00030817,
        "meta_inclination": 43.007,
        "meta_ra_of_asc_node": 62.7174,
        "meta_arg_of_pericenter": 266.2071,
        "meta_mean_anomaly": 93.8433,
        "meta_ephemeris_type": 0,
        "meta_classification_type": "U",
        "meta_norad_cat_id": 66461,
        "meta_element_set_no": 999,
        "meta_rev_at_epoch": 579,
        "meta_bstar": 0.0019017995,
        "meta_mean_motion_dot": 0.00079931,
        "meta_mean_motion_ddot": 0,
        "tle_line1": "1 66461U 25262F   25348.25723644  .00079931  00000+0  19018-2 0  9994",
        "tle_line2": "2 66461  43.0070  62.7174 0003081 266.2071  93.8433 15.40680665  5794"
      },
      "geometry": {
        "type": "Point",
        "coordinates": [
          -97.384508379888,
          -20.65312252839377
        ]
      }
    },
    {
      "type": "Feature",
      "properties": {
        "norad_id": 66462,
        "name": "STARLINK-35499",
        "group": "last-30-days",
        "lat": -28.131649503752897,
        "lon": -86.2456935492915,
        "alt_km": 445.8809598473963,
        "timestamp": "2025-12-14T22:38:39.515745+00:00",
        "meta_object_name": "STARLINK-35499",
        "meta_object_id": "2025-262G",
        "meta_epoch": "2025-12-14T06:07:11.433216",
        "meta_mean_motion": 15.4071747,
        "meta_eccentricity": 0.00032077,
        "meta_inclination": 42.9912,
        "meta_ra_of_asc_node": 62.6986,
        "meta_arg_of_pericenter": 141.844,
        "meta_mean_anomaly": 218.2644,
        "meta_ephemeris_type": 0,
        "meta_classification_type": "U",
        "meta_norad_cat_id": 66462,
        "meta_element_set_no": 999,
        "meta_rev_at_epoch": 579,
        "meta_bstar": 0.0012175979,
        "meta_mean_motion_dot": 0.00050934,
        "meta_mean_motion_ddot": 0,
        "tle_line1": "1 66462U 25262G   25348.25499344  .00050934  00000+0  12176-2 0  9992",
        "tle_line2": "2 66462  42.9912  62.6986 0003207 141.8440 218.2644 15.40717470  5798"
      },
      "geometry": {
        "type": "Point",
        "coordinates": [
          -86.2456935492915,
          -28.131649503752897
        ]
      }
    },
    {
      "type": "Feature",
      "properties": {
        "norad_id": 66463,
        "name": "STARLINK-35463",
        "group": "last-30-days",
        "lat": -39.31957517598975,
        "lon": -59.80992709701652,
        "alt_km": 446.5467740742415,
        "timestamp": "2025-12-14T22:38:39.515756+00:00",
        "meta_object_name": "STARLINK-35463",
        "meta_object_id": "2025-262H",
        "meta_epoch": "2025-12-14T06:00:44.746560",
        "meta_mean_motion": 15.40655179,
        "meta_eccentricity": 9.815e-05,
        "meta_inclination": 42.9991,
        "meta_ra_of_asc_node": 62.6641,
        "meta_arg_of_pericenter": 249.3838,
        "meta_mean_anomaly": 110.6914,
        "meta_ephemeris_type": 0,
        "meta_classification_type": "U",
        "meta_norad_cat_id": 66463,
        "meta_element_set_no": 999,
        "meta_rev_at_epoch": 579,
        "meta_bstar": 0.0010765274,
        "meta_mean_motion_dot": 0.00044863,
        "meta_mean_motion_ddot": 0,
        "tle_line1": "1 66463U 25262H   25348.25051790  .00044863  00000+0  10765-2 0  9998",
        "tle_line2": "2 66463  42.9991  62.6641 0000981 249.3838 110.6914 15.40655179  5797"
      },
      "geometry": {
        "type": "Point",
        "coordinates": [
          -59.80992709701652,
          -39.31957517598975
        ]
      }
    },
    {
      "type": "Feature",
      "properties": {
        "norad_id": 66464,
        "name": "STARLINK-35435",
        "group": "last-30-days",
        "lat": -34.42299308788843,
        "lon": -73.9607716715965,
        "alt_km": 445.8768320928484,
        "timestamp": "2025-12-14T22:38:39.515770+00:00",
        "meta_object_name": "STARLINK-35435",
        "meta_object_id": "2025-262J",
        "meta_epoch": "2025-12-14T06:03:58.025088",
        "meta_mean_motion": 15.40678421,
        "meta_eccentricity": 0.00015488,
        "meta_inclination": 43.0015,
        "meta_ra_of_asc_node": 62.6813,
        "meta_arg_of_pericenter": 254.8467,
        "meta_mean_anomaly": 105.2218,
        "meta_ephemeris_type": 0,
        "meta_classification_type": "U",
        "meta_norad_cat_id": 66464,
        "meta_element_set_no": 999,
        "meta_rev_at_epoch": 579,
        "meta_bstar": 0.0013927105,
        "meta_mean_motion_dot": 0.00058277,
        "meta_mean_motion_ddot": 0,
        "tle_line1": "1 66464U 25262J   25348.25275492  .00058277  00000+0  13927-2 0  9993",
        "tle_line2": "2 66464  43.0015  62.6813 0001548 254.8467 105.2218 15.40678421  5799"
      },
      "geometry": {
        "type": "Point",
        "coordinates": [
          -73.9607716715965,
          -34.42299308788843
        ]
      }
    },
    {
      "type": "Feature",
      "properties": {
        "norad_id": 66465,
        "name": "STARLINK-35448",
        "group": "last-30-days",
        "lat": -42.893903100454104,
        "lon": -26.940988608147197,
        "alt_km": 446.41092400178877,
        "timestamp": "2025-12-14T22:38:39.515780+00:00",
        "meta_object_name": "STARLINK-35448",
        "meta_object_id": "2025-262K",
        "meta_epoch": "2025-12-14T06:00:02.999808",
        "meta_mean_motion": 15.40663166,
        "meta_eccentricity": 0.00012594,
        "meta_inclination": 43.0004,
        "meta_ra_of_asc_node": 62.6073,
        "meta_arg_of_pericenter": 261.4614,
        "meta_mean_anomaly": 120.8186,
        "meta_ephemeris_type": 0,
        "meta_classification_type": "U",
        "meta_norad_cat_id": 66465,
        "meta_element_set_no": 999,
        "meta_rev_at_epoch": 588,
        "meta_bstar": 0.0015471734,
        "meta_mean_motion_dot": 0.00064797,
        "meta_mean_motion_ddot": 0,
        "tle_line1": "1 66465U 25262K   25348.25003472  .00064797  00000+0  15472-2 0  9992",
        "tle_line2": "2 66465  43.0004  62.6073 0001259 261.4614 120.8186 15.40663166  5880"
      },
      "geometry": {
        "type": "Point",
        "coordinates": [
          -26.940988608147197,
          -42.893903100454104
        ]
      }
    },
    {
      "type": "Feature",
      "properties": {
        "norad_id": 66466,
        "name": "STARLINK-35388",
        "group": "last-30-days",
        "lat": -41.02704918226839,
        "lon": -10.446066643598435,
        "alt_km": 446.2821318673341,
        "timestamp": "2025-12-14T22:38:39.515791+00:00",
        "meta_object_name": "STARLINK-35388",
        "meta_object_id": "2025-262L",
        "meta_epoch": "2025-12-14T06:00:02.999808",
        "meta_mean_motion": 15.40668059,
        "meta_eccentricity": 0.00014748,
        "meta_inclination": 43.0004,
        "meta_ra_of_asc_node": 62.5757,
        "meta_arg_of_pericenter": 260.9405,
        "meta_mean_anomaly": 133.7758,
        "meta_ephemeris_type": 0,
        "meta_classification_type": "U",
        "meta_norad_cat_id": 66466,
        "meta_element_set_no": 999,
        "meta_rev_at_epoch": 588,
        "meta_bstar": 0.0012222448,
        "meta_mean_motion_dot": 0.00051041,
        "meta_mean_motion_ddot": 0,
        "tle_line1": "1 66466U 25262L   25348.25003472  .00051041  00000+0  12222-2 0  9991",
        "tle_line2": "2 66466  43.0004  62.5757 0001474 260.9405 133.7758 15.40668059  5884"
      },
      "geometry": {
        "type": "Point",
        "coordinates": [
          -10.446066643598435,
          -41.02704918226839
        ]
      }
    },
    {
      "type": "Feature",
      "properties": {
        "norad_id": 66467,
        "name": "STARLINK-35682",
        "group": "last-30-days",
        "lat": -42.298872338292604,
        "lon": -43.832820431604794,
        "alt_km": 446.21691857373844,
        "timestamp": "2025-12-14T22:38:39.515802+00:00",
        "meta_object_name": "STARLINK-35682",
        "meta_object_id": "2025-262M",
        "meta_epoch": "2025-12-14T00:00:04.000320",
        "meta_mean_motion": 15.40649325,
        "meta_eccentricity": 0.00016546,
        "meta_inclination": 43.0009,
        "meta_ra_of_asc_node": 64.0766,
        "meta_arg_of_pericenter": 260.4818,
        "meta_mean_anomaly": 161.1928,
        "meta_ephemeris_type": 0,
        "meta_classification_type": "U",
        "meta_norad_cat_id": 66467,
        "meta_element_set_no": 999,
        "meta_rev_at_epoch": 584,
        "meta_bstar": 0.00089064183,
        "meta_mean_motion_dot": 0.00037019,
        "meta_mean_motion_ddot": 0,
        "tle_line1": "1 66467U 25262M   25348.00004630  .00037019  00000+0  89064-3 0  9990",
        "tle_line2": "2 66467  43.0009  64.0766 0001654 260.4818 161.1928 15.40649325  5845"
      },
      "geometry": {
        "type": "Point",
        "coordinates": [
          -43.832820431604794,
          -42.298872338292604
        ]
      }
    }
  ]
}